TEVEL2-3                
1 63218U 25052J   26068.64540225  .00020365  00000+0  69446-3 0  9991
2 63218  97.3994 324.7775 0004761 105.7353 254.4413 15.30377031 54855
STARLINK-34390          
1 64666U 25139C   26068.53491302  .00025068  00000+0  85699-3 0  9997
2 64666  53.1583 127.5300 0000725  82.6077 277.5007 15.30148233 40324
